KUIPER-00044            
1 64505U 25134F   26007.70318430  .00003716  00000+0  51572-3 0  9995
2 64505  51.8986 156.2738 0012093  72.7158 287.5126 14.79960230 30854
KUIPER-00046            
1 64506U 25134G   26008.00003472 -.00052398  00000+0 -70958-2 0  9997
2 64506  51.8980 151.2051 0010596 103.3132 131.5881 14.78697332  5724
KUIPER-00047            
1 64507U 25134H   26007.60720202  .00004265  00000+0  63589-3 0  9991
2 64507  51.8999 124.6849 0000857 330.2070  29.8842 14.76567562 31280
KUIPER-00048            
1 64508U 25134J   26007.53459915  .00003248  00000+0  45484-3 0  9998
2 64508  51.8997 126.0111 0002295 224.4292 135.6487 14.79934023 31267
KUIPER-00049            
1 64509U 25134K   26007.65443278  .00004388  00000+0  60385-3 0  9990
2 64509  51.8989 138.9507 0002949  93.4760 266.6540 14.79961619 31097
KUIPER-00050            
1 64510U 25134L   26007.61730234  .00006291  00000+0  56335-3 0  9994
2 64510  51.8897 129.4946 0005060 111.9102 248.2406 14.96943779 31220
KUIPER-00051            
1 64511U 25134M   26007.65714165  .00003231  00000+0  45266-3 0  9996
2 64511  51.9007 136.5084 0002514 104.4919 255.6322 14.79931035 31122
KUIPER-00052            
1 64512U 25134N   26008.00003472  .00061061  00000+0  35317-3 0  9990
2 64512  51.8587  60.4700 0002062  88.2517  37.2401 15.78010188  4417
